[{"OBJECT_NAME":"ONEWEB-0161","OBJECT_ID":"2021-025M","EPOCH":"2026-02-06T07:06:00.883584","MEAN_MOTION":13.1347066,"ECCENTRICITY":0.00019394,"INCLINATION":87.9029,"RA_OF_ASC_NODE":346.2397,"ARG_OF_PERICENTER":83.4967,"MEAN_ANOMALY":276.6383,"EPHEMERIS_TYPE":0,"CLASSIFICATION_TYPE":"U","NORAD_CAT_ID":48053,"ELEMENT_SET_NO":999,"REV_AT_EPOCH":23632,"BSTAR":0.00087903174,"MEAN_MOTION_DOT":3.34e-6,"MEAN_MOTION_DDOT":0},{"OBJECT_NAME":"ONEWEB-0158","OBJECT_ID":"2021-025N","EPOCH":"2026-02-05T20:59:01.102848","MEAN_MOTION":13.13470676,"ECCENTRICITY":0.0001485,"INCLINATION":87.9038,"RA_OF_ASC_NODE":346.3108,"ARG_OF_PERICENTER":74.74,"MEAN_ANOMALY":285.3893,"EPHEMERIS_TYPE":0,"CLASSIFICATION_TYPE":"U","NORAD_CAT_ID":48054,"ELEMENT_SET_NO":999,"REV_AT_EPOCH":23639,"BSTAR":-0.00061896,"MEAN_MOTION_DOT":-2.13e-6,"MEAN_MOTION_DDOT":0},{"OBJECT_NAME":"ONEWEB-0157","OBJECT_ID":"2021-025P","EPOCH":"2026-02-06T06:44:03.369984","MEAN_MOTION":13.13472475,"ECCENTRICITY":0.00020089,"INCLINATION":87.9034,"RA_OF_ASC_NODE":346.2356,"ARG_OF_PERICENTER":91.4358,"MEAN_ANOMALY":268.7001,"EPHEMERIS_TYPE":0,"CLASSIFICATION_TYPE":"U","NORAD_CAT_ID":48055,"ELEMENT_SET_NO":999,"REV_AT_EPOCH":23638,"BSTAR":7.794049e-6,"MEAN_MOTION_DOT":1.6e-7,"MEAN_MOTION_DDOT":0},{"OBJECT_NAME":"ONEWEB-0162","OBJECT_ID":"2021-025Q","EPOCH":"2026-02-06T06:09:44.616960","MEAN_MOTION":13.13469837,"ECCENTRICITY":0.0001942,"INCLINATION":87.904,"RA_OF_ASC_NODE":346.2438,"ARG_OF_PERICENTER":78.0074,"MEAN_ANOMALY":282.1273,"EPHEMERIS_TYPE":0,"CLASSIFICATION_TYPE":"U","NORAD_CAT_ID":48056,"ELEMENT_SET_NO":999,"REV_AT_EPOCH":23635,"BSTAR":-0.00044189029,"MEAN_MOTION_DOT":-1.49e-6,"MEAN_MOTION_DDOT":0},{"OBJECT_NAME":"ONEWEB-0155","OBJECT_ID":"2021-025R","EPOCH":"2026-02-06T06:19:40.620576","MEAN_MOTION":13.13469917,"ECCENTRICITY":0.00017501,"INCLINATION":87.9028,"RA_OF_ASC_NODE":346.2446,"ARG_OF_PERICENTER":86.0678,"MEAN_ANOMALY":274.0651,"EPHEMERIS_TYPE":0,"CLASSIFICATION_TYPE":"U","NORAD_CAT_ID":48057,"ELEMENT_SET_NO":999,"REV_AT_EPOCH":23649,"BSTAR":-0.0007123712,"MEAN_MOTION_DOT":-2.47e-6,"MEAN_MOTION_DDOT":0},{"OBJECT_NAME":"ONEWEB-0149","OBJECT_ID":"2021-025S","EPOCH":"2026-02-06T06:51:22.841856","MEAN_MOTION":13.13472534,"ECCENTRICITY":0.00020103,"INCLINATION":87.9034,"RA_OF_ASC_NODE":346.235,"ARG_OF_PERICENTER":79.1041,"MEAN_ANOMALY":281.0314,"EPHEMERIS_TYPE":0,"CLASSIFICATION_TYPE":"U","NORAD_CAT_ID":48058,"ELEMENT_SET_NO":999,"REV_AT_EPOCH":23630,"BSTAR":0.00034812789,"MEAN_MOTION_DOT":1.4e-6,"MEAN_MOTION_DDOT":0},{"OBJECT_NAME":"ONEWEB-0148","OBJECT_ID":"2021-025T","EPOCH":"2026-02-06T05:57:44.942112","MEAN_MOTION":13.13471124,"ECCENTRICITY":0.0002423,"INCLINATION":87.9033,"RA_OF_ASC_NODE":346.2582,"ARG_OF_PERICENTER":77.0101,"MEAN_ANOMALY":283.1298,"EPHEMERIS_TYPE":0,"CLASSIFICATION_TYPE":"U","NORAD_CAT_ID":48059,"ELEMENT_SET_NO":999,"REV_AT_EPOCH":23642,"BSTAR":-0.00011963163,"MEAN_MOTION_DOT":-3.1e-7,"MEAN_MOTION_DDOT":0},{"OBJECT_NAME":"ONEWEB-0160","OBJECT_ID":"2021-025U","EPOCH":"2026-02-06T06:22:06.629664","MEAN_MOTION":13.13471817,"ECCENTRICITY":0.00014391,"INCLINATION":87.9028,"RA_OF_ASC_NODE":346.2524,"ARG_OF_PERICENTER":54.367,"MEAN_ANOMALY":305.7593,"EPHEMERIS_TYPE":0,"CLASSIFICATION_TYPE":"U","NORAD_CAT_ID":48060,"ELEMENT_SET_NO":999,"REV_AT_EPOCH":23637,"BSTAR":-0.00048519916,"MEAN_MOTION_DOT":-1.64e-6,"MEAN_MOTION_DDOT":0},{"OBJECT_NAME":"ONEWEB-0163","OBJECT_ID":"2021-025V","EPOCH":"2026-02-06T06:00:11.155104","MEAN_MOTION":13.13469342,"ECCENTRICITY":0.00019576,"INCLINATION":87.904,"RA_OF_ASC_NODE":346.2457,"ARG_OF_PERICENTER":88.2415,"MEAN_ANOMALY":271.8938,"EPHEMERIS_TYPE":0,"CLASSIFICATION_TYPE":"U","NORAD_CAT_ID":48061,"ELEMENT_SET_NO":999,"REV_AT_EPOCH":23649,"BSTAR":-0.00027349176,"MEAN_MOTION_DOT":-8.7e-7,"MEAN_MOTION_DDOT":0},{"OBJECT_NAME":"ONEWEB-0159","OBJECT_ID":"2021-025W","EPOCH":"2026-02-06T05:48:00.214560","MEAN_MOTION":13.13470971,"ECCENTRICITY":0.00020015,"INCLINATION":87.9041,"RA_OF_ASC_NODE":346.2319,"ARG_OF_PERICENTER":81.3986,"MEAN_ANOMALY":278.737,"EPHEMERIS_TYPE":0,"CLASSIFICATION_TYPE":"U","NORAD_CAT_ID":48062,"ELEMENT_SET_NO":999,"REV_AT_EPOCH":23641,"BSTAR":0.00028052872,"MEAN_MOTION_DOT":1.15e-6,"MEAN_MOTION_DDOT":0},{"OBJECT_NAME":"ONEWEB-0164","OBJECT_ID":"2021-025X","EPOCH":"2026-02-06T07:10:52.341888","MEAN_MOTION":13.13469972,"ECCENTRICITY":0.00017188,"INCLINATION":87.9037,"RA_OF_ASC_NODE":346.2277,"ARG_OF_PERICENTER":78.9592,"MEAN_ANOMALY":281.1731,"EPHEMERIS_TYPE":0,"CLASSIFICATION_TYPE":"U","NORAD_CAT_ID":48063,"ELEMENT_SET_NO":999,"REV_AT_EPOCH":23640,"BSTAR":0.0010938412,"MEAN_MOTION_DOT":4.12e-6,"MEAN_MOTION_DDOT":0},{"OBJECT_NAME":"ONEWEB-0167","OBJECT_ID":"2021-025Y","EPOCH":"2026-02-06T06:01:23.414016","MEAN_MOTION":13.13468279,"ECCENTRICITY":0.00016289,"INCLINATION":87.9031,"RA_OF_ASC_NODE":346.2594,"ARG_OF_PERICENTER":103.0938,"MEAN_ANOMALY":257.0373,"EPHEMERIS_TYPE":0,"CLASSIFICATION_TYPE":"U","NORAD_CAT_ID":48064,"ELEMENT_SET_NO":999,"REV_AT_EPOCH":23638,"BSTAR":-0.00020207716,"MEAN_MOTION_DOT":-6.1e-7,"MEAN_MOTION_DDOT":0},{"OBJECT_NAME":"ONEWEB-0166","OBJECT_ID":"2021-025Z","EPOCH":"2026-02-06T06:34:18.240672","MEAN_MOTION":13.13472338,"ECCENTRICITY":0.000199,"INCLINATION":87.9034,"RA_OF_ASC_NODE":346.2156,"ARG_OF_PERICENTER":80.3115,"MEAN_ANOMALY":279.8239,"EPHEMERIS_TYPE":0,"CLASSIFICATION_TYPE":"U","NORAD_CAT_ID":48065,"ELEMENT_SET_NO":999,"REV_AT_EPOCH":23646,"BSTAR":-0.00055602366,"MEAN_MOTION_DOT":-1.9e-6,"MEAN_MOTION_DDOT":0},{"OBJECT_NAME":"ONEWEB-0151","OBJECT_ID":"2021-025AA","EPOCH":"2026-02-06T06:36:45.184608","MEAN_MOTION":13.13471033,"ECCENTRICITY":0.00016729,"INCLINATION":87.9031,"RA_OF_ASC_NODE":346.2425,"ARG_OF_PERICENTER":85.2738,"MEAN_ANOMALY":274.8582,"EPHEMERIS_TYPE":0,"CLASSIFICATION_TYPE":"U","NORAD_CAT_ID":48066,"ELEMENT_SET_NO":999,"REV_AT_EPOCH":23640,"BSTAR":-0.00034283812,"MEAN_MOTION_DOT":-1.12e-6,"MEAN_MOTION_DDOT":0},{"OBJECT_NAME":"ONEWEB-0170","OBJECT_ID":"2021-025AB","EPOCH":"2026-02-06T06:48:55.973088","MEAN_MOTION":13.13471733,"ECCENTRICITY":0.00013354,"INCLINATION":87.9029,"RA_OF_ASC_NODE":346.2426,"ARG_OF_PERICENTER":78.4343,"MEAN_ANOMALY":281.6936,"EPHEMERIS_TYPE":0,"CLASSIFICATION_TYPE":"U","NORAD_CAT_ID":48067,"ELEMENT_SET_NO":999,"REV_AT_EPOCH":23636,"BSTAR":0.00013815793,"MEAN_MOTION_DOT":6.3e-7,"MEAN_MOTION_DDOT":0},{"OBJECT_NAME":"ONEWEB-0168","OBJECT_ID":"2021-025AC","EPOCH":"2026-02-05T21:18:30.900960","MEAN_MOTION":13.13471754,"ECCENTRICITY":0.0001905,"INCLINATION":87.9037,"RA_OF_ASC_NODE":346.3101,"ARG_OF_PERICENTER":85.2003,"MEAN_ANOMALY":274.9344,"EPHEMERIS_TYPE":0,"CLASSIFICATION_TYPE":"U","NORAD_CAT_ID":48068,"ELEMENT_SET_NO":999,"REV_AT_EPOCH":23632,"BSTAR":-0.0008546,"MEAN_MOTION_DOT":-2.99e-6,"MEAN_MOTION_DDOT":0}]
