ONEWEB-0161             
1 48053U 21025M   26037.29584356  .00000334  00000+0  87903-3 0  9999
2 48053  87.9029 346.2397 0001939  83.4967 276.6383 13.13470660236322
ONEWEB-0158             
1 48054U 21025N   26036.87431832 -.00000213  00000+0 -61896-3 0  9994
2 48054  87.9038 346.3108 0001485  74.7400 285.3893 13.13470676236392
ONEWEB-0157             
1 48055U 21025P   26037.28059456  .00000016  00000+0  77940-5 0  9997
2 48055  87.9034 346.2356 0002008  91.4358 268.7001 13.13472475236387
ONEWEB-0162             
1 48056U 21025Q   26037.25676640 -.00000149  00000+0 -44189-3 0  9991
2 48056  87.9040 346.2438 0001942  78.0074 282.1273 13.13469837236354
ONEWEB-0155             
1 48057U 21025R   26037.26366459 -.00000247  00000+0 -71237-3 0  9990
2 48057  87.9028 346.2446 0001750  86.0678 274.0651 13.13469917236490
ONEWEB-0149             
1 48058U 21025S   26037.28568104  .00000140  00000+0  34813-3 0  9993
2 48058  87.9034 346.2350 0002010  79.1041 281.0314 13.13472534236302
ONEWEB-0148             
1 48059U 21025T   26037.24843683 -.00000031  00000+0 -11963-3 0  9990
2 48059  87.9033 346.2582 0002423  77.0101 283.1298 13.13471124236422
ONEWEB-0160             
1 48060U 21025U   26037.26535451 -.00000164  00000+0 -48520-3 0  9991
2 48060  87.9028 346.2524 0001439  54.3670 305.7593 13.13471817236371
ONEWEB-0163             
1 48061U 21025V   26037.25012911 -.00000087  00000+0 -27349-3 0  9992
2 48061  87.9040 346.2457 0001957  88.2415 271.8938 13.13469342236498
ONEWEB-0159             
1 48062U 21025W   26037.24166915  .00000115  00000+0  28053-3 0  9999
2 48062  87.9041 346.2319 0002001  81.3986 278.7370 13.13470971236413
ONEWEB-0164             
1 48063U 21025X   26037.29921692  .00000412  00000+0  10938-2 0  9998
2 48063  87.9037 346.2277 0001718  78.9592 281.1731 13.13469972236408
ONEWEB-0167             
1 48064U 21025Y   26037.25096544 -.00000061  00000+0 -20208-3 0  9998
2 48064  87.9031 346.2594 0001628 103.0938 257.0373 13.13468279236389
ONEWEB-0166             
1 48065U 21025Z   26037.27382223 -.00000190  00000+0 -55602-3 0  9992
2 48065  87.9034 346.2156 0001990  80.3115 279.8239 13.13472338236466
ONEWEB-0151             
1 48066U 21025AA  26037.27552297 -.00000112  00000+0 -34284-3 0  9990
2 48066  87.9031 346.2425 0001672  85.2738 274.8582 13.13471033236406
ONEWEB-0170             
1 48067U 21025AB  26037.28398117  .00000063  00000+0  13816-3 0  9992
2 48067  87.9029 346.2426 0001335  78.4343 281.6936 13.13471733236368
ONEWEB-0168             
1 48068U 21025AC  26036.88785765 -.00000299  00000+0 -85460-3 0  9994
2 48068  87.9037 346.3101 0001905  85.2003 274.9344 13.13471754236328
